CCSDS_OMM_VERS = 2.0
CREATION_DATE  = 
ORIGINATOR     = 

OBJECT_NAME    = SL-16 R/B
OBJECT_ID      = 1993-016B
CENTER_NAME    = EARTH
REF_FRAME      = TEME
TIME_SYSTEM    = UTC
MEAN_ELEMENT_THEORY = SGP/SGP4

EPOCH          = 2025-12-13T13:16:44.374368
MEAN_MOTION    = 14.15286886
ECCENTRICITY   = .00079038
INCLINATION    = 71.0081
RA_OF_ASC_NODE = 36.0953
ARG_OF_PERICENTER = 95.9806
MEAN_ANOMALY   = 264.2218

EPHEMERIS_TYPE = 0
CLASSIFICATION_TYPE = U
NORAD_CAT_ID   = 22566
ELEMENT_SET_NO = 999
REV_AT_EPOCH   = 68998
BSTAR          = .13314575E-4
MEAN_MOTION_DOT = -.22E-6
MEAN_MOTION_DDOT = 0

CCSDS_OMM_VERS = 2.0
CREATION_DATE  = 
ORIGINATOR     = 

OBJECT_NAME    = COSMOS 2242
OBJECT_ID      = 1993-024A
CENTER_NAME    = EARTH
REF_FRAME      = TEME
TIME_SYSTEM    = UTC
MEAN_ELEMENT_THEORY = SGP/SGP4

EPOCH          = 2025-12-13T12:07:31.141920
MEAN_MOTION    = 14.96113046
ECCENTRICITY   = .00150032
INCLINATION    = 82.5195
RA_OF_ASC_NODE = 349.1134
ARG_OF_PERICENTER = 231.4361
MEAN_ANOMALY   = 128.5518

EPHEMERIS_TYPE = 0
CLASSIFICATION_TYPE = U
NORAD_CAT_ID   = 22626
ELEMENT_SET_NO = 999
REV_AT_EPOCH   = 76750
BSTAR          = .29361093E-3
MEAN_MOTION_DOT = .3334E-4
MEAN_MOTION_DDOT = 0

CCSDS_OMM_VERS = 2.0
CREATION_DATE  = 
ORIGINATOR     = 

OBJECT_NAME    = SL-16 R/B
OBJECT_ID      = 1993-059B
CENTER_NAME    = EARTH
REF_FRAME      = TEME
TIME_SYSTEM    = UTC
MEAN_ELEMENT_THEORY = SGP/SGP4

EPOCH          = 2025-12-13T15:35:33.200448
MEAN_MOTION    = 14.17213543
ECCENTRICITY   = .00180531
INCLINATION    = 70.9889
RA_OF_ASC_NODE = 192.5678
ARG_OF_PERICENTER = 334.2407
MEAN_ANOMALY   = 25.7816

EPHEMERIS_TYPE = 0
CLASSIFICATION_TYPE = U
NORAD_CAT_ID   = 22803
ELEMENT_SET_NO = 999
REV_AT_EPOCH   = 66734
BSTAR          = -.50368255E-4
MEAN_MOTION_DOT = -.15E-5
MEAN_MOTION_DDOT = 0

CCSDS_OMM_VERS = 2.0
CREATION_DATE  = 
ORIGINATOR     = 

OBJECT_NAME    = ARIANE 40 R/B
OBJECT_ID      = 1993-061H
CENTER_NAME    = EARTH
REF_FRAME      = TEME
TIME_SYSTEM    = UTC
MEAN_ELEMENT_THEORY = SGP/SGP4

EPOCH          = 2025-12-13T15:58:42.354336
MEAN_MOTION    = 14.32802149
ECCENTRICITY   = .00109282
INCLINATION    = 98.5076
RA_OF_ASC_NODE = 53.1788
ARG_OF_PERICENTER = 173.3055
MEAN_ANOMALY   = 186.8277

EPHEMERIS_TYPE = 0
CLASSIFICATION_TYPE = U
NORAD_CAT_ID   = 22830
ELEMENT_SET_NO = 999
REV_AT_EPOCH   = 68178
BSTAR          = .15716403E-3
MEAN_MOTION_DOT = .385E-5
MEAN_MOTION_DDOT = 0

CCSDS_OMM_VERS = 2.0
CREATION_DATE  = 
ORIGINATOR     = 

OBJECT_NAME    = COSMOS 2278
OBJECT_ID      = 1994-023A
CENTER_NAME    = EARTH
REF_FRAME      = TEME
TIME_SYSTEM    = UTC
MEAN_ELEMENT_THEORY = SGP/SGP4

EPOCH          = 2025-12-13T10:55:40.057536
MEAN_MOTION    = 14.14350443
ECCENTRICITY   = .00082935
INCLINATION    = 71.0541
RA_OF_ASC_NODE = 355.5141
ARG_OF_PERICENTER = 178.5861
MEAN_ANOMALY   = 181.5287

EPHEMERIS_TYPE = 0
CLASSIFICATION_TYPE = U
NORAD_CAT_ID   = 23087
ELEMENT_SET_NO = 999
REV_AT_EPOCH   = 63261
BSTAR          = -.54047219E-4
MEAN_MOTION_DOT = -.151E-5
MEAN_MOTION_DDOT = 0

CCSDS_OMM_VERS = 2.0
CREATION_DATE  = 
ORIGINATOR     = 

OBJECT_NAME    = SL-16 R/B
OBJECT_ID      = 1994-023B
CENTER_NAME    = EARTH
REF_FRAME      = TEME
TIME_SYSTEM    = UTC
MEAN_ELEMENT_THEORY = SGP/SGP4

EPOCH          = 2025-12-13T16:22:48.797472
MEAN_MOTION    = 14.15003079
ECCENTRICITY   = .00014238
INCLINATION    = 71.0006
RA_OF_ASC_NODE = 251.5060
ARG_OF_PERICENTER = 23.3892
MEAN_ANOMALY   = 336.7296

EPHEMERIS_TYPE = 0
CLASSIFICATION_TYPE = U
NORAD_CAT_ID   = 23088
ELEMENT_SET_NO = 999
REV_AT_EPOCH   = 63392
BSTAR          = .15057206E-4
MEAN_MOTION_DOT = -.19E-6
MEAN_MOTION_DDOT = 0

CCSDS_OMM_VERS = 2.0
CREATION_DATE  = 
ORIGINATOR     = 

OBJECT_NAME    = SL-16 R/B
OBJECT_ID      = 1994-074B
CENTER_NAME    = EARTH
REF_FRAME      = TEME
TIME_SYSTEM    = UTC
MEAN_ELEMENT_THEORY = SGP/SGP4

EPOCH          = 2025-12-13T16:47:46.989888
MEAN_MOTION    = 14.79291004
ECCENTRICITY   = .00076009
INCLINATION    = 97.7202
RA_OF_ASC_NODE = 16.9662
ARG_OF_PERICENTER = 133.1041
MEAN_ANOMALY   = 343.2583

EPHEMERIS_TYPE = 0
CLASSIFICATION_TYPE = U
NORAD_CAT_ID   = 23343
ELEMENT_SET_NO = 999
REV_AT_EPOCH   = 67453
BSTAR          = .10394381E-3
MEAN_MOTION_DOT = .724E-5
MEAN_MOTION_DDOT = 0

CCSDS_OMM_VERS = 2.0
CREATION_DATE  = 
ORIGINATOR     = 

OBJECT_NAME    = SL-16 R/B
OBJECT_ID      = 1994-077B
CENTER_NAME    = EARTH
REF_FRAME      = TEME
TIME_SYSTEM    = UTC
MEAN_ELEMENT_THEORY = SGP/SGP4

EPOCH          = 2025-12-13T16:44:38.606784
MEAN_MOTION    = 14.15550425
ECCENTRICITY   = .00046815
INCLINATION    = 70.9812
RA_OF_ASC_NODE = 173.3983
ARG_OF_PERICENTER = 283.3792
MEAN_ANOMALY   = 76.6809

EPHEMERIS_TYPE = 0
CLASSIFICATION_TYPE = U
NORAD_CAT_ID   = 23405
ELEMENT_SET_NO = 999
REV_AT_EPOCH   = 60406
BSTAR          = .17979887E-3
MEAN_MOTION_DOT = .304E-5
MEAN_MOTION_DDOT = 0

CCSDS_OMM_VERS = 2.0
CREATION_DATE  = 
ORIGINATOR     = 

OBJECT_NAME    = ARIANE 40+ R/B
OBJECT_ID      = 1995-021B
CENTER_NAME    = EARTH
REF_FRAME      = TEME
TIME_SYSTEM    = UTC
MEAN_ELEMENT_THEORY = SGP/SGP4

EPOCH          = 2025-12-13T15:38:11.020416
MEAN_MOTION    = 14.39696367
ECCENTRICITY   = .00074503
INCLINATION    = 98.4652
RA_OF_ASC_NODE = 55.2294
ARG_OF_PERICENTER = 47.5779
MEAN_ANOMALY   = 72.8310

EPHEMERIS_TYPE = 0
CLASSIFICATION_TYPE = U
NORAD_CAT_ID   = 23561
ELEMENT_SET_NO = 999
REV_AT_EPOCH   = 60686
BSTAR          = .16119803E-3
MEAN_MOTION_DOT = .461E-5
MEAN_MOTION_DDOT = 0

CCSDS_OMM_VERS = 2.0
CREATION_DATE  = 
ORIGINATOR     = 

OBJECT_NAME    = SL-16 R/B
OBJECT_ID      = 1995-058B
CENTER_NAME    = EARTH
REF_FRAME      = TEME
TIME_SYSTEM    = UTC
MEAN_ELEMENT_THEORY = SGP/SGP4

EPOCH          = 2025-12-13T11:43:17.142240
MEAN_MOTION    = 14.15484128
ECCENTRICITY   = .00149826
INCLINATION    = 71.0226
RA_OF_ASC_NODE = 1.2326
ARG_OF_PERICENTER = 254.5464
MEAN_ANOMALY   = 105.4005

EPHEMERIS_TYPE = 0
CLASSIFICATION_TYPE = U
NORAD_CAT_ID   = 23705
ELEMENT_SET_NO = 999
REV_AT_EPOCH   = 55565
BSTAR          = .30748268E-4
MEAN_MOTION_DOT = .12E-6
MEAN_MOTION_DDOT = 0

CCSDS_OMM_VERS = 2.0
CREATION_DATE  = 
ORIGINATOR     = 

OBJECT_NAME    = SL-16 R/B
OBJECT_ID      = 1996-051B
CENTER_NAME    = EARTH
REF_FRAME      = TEME
TIME_SYSTEM    = UTC
MEAN_ELEMENT_THEORY = SGP/SGP4

EPOCH          = 2025-12-13T11:31:23.184480
MEAN_MOTION    = 14.12396896
ECCENTRICITY   = .00194159
INCLINATION    = 70.7595
RA_OF_ASC_NODE = 357.7168
ARG_OF_PERICENTER = 260.4268
MEAN_ANOMALY   = 99.4658

EPHEMERIS_TYPE = 0
CLASSIFICATION_TYPE = U
NORAD_CAT_ID   = 24298
ELEMENT_SET_NO = 999
REV_AT_EPOCH   = 50947
BSTAR          = .50726619E-4
MEAN_MOTION_DOT = .44E-6
MEAN_MOTION_DDOT = 0

CCSDS_OMM_VERS = 2.0
CREATION_DATE  = 
ORIGINATOR     = 

OBJECT_NAME    = ORBVIEW 2 (SEASTAR)
OBJECT_ID      = 1997-037A
CENTER_NAME    = EARTH
REF_FRAME      = TEME
TIME_SYSTEM    = UTC
MEAN_ELEMENT_THEORY = SGP/SGP4

EPOCH          = 2025-12-13T16:22:10.695072
MEAN_MOTION    = 14.35418108
ECCENTRICITY   = .00016154
INCLINATION    = 98.8457
RA_OF_ASC_NODE = 144.7802
ARG_OF_PERICENTER = 338.3081
MEAN_ANOMALY   = 21.8035

EPHEMERIS_TYPE = 0
CLASSIFICATION_TYPE = U
NORAD_CAT_ID   = 24883
ELEMENT_SET_NO = 999
REV_AT_EPOCH   = 49613
BSTAR          = .17917276E-3
MEAN_MOTION_DOT = .468E-5
MEAN_MOTION_DDOT = 0

