SL-16 R/B               
1 22566U 93016B   25347.55329137 -.00000022  00000+0  13315-4 0  9997
2 22566  71.0081  36.0953 0007903  95.9806 264.2218 14.15286886689986
COSMOS 2242             
1 22626U 93024A   25347.50522155  .00003334  00000+0  29361-3 0  9998
2 22626  82.5195 349.1134 0015003 231.4361 128.5518 14.96113046767504
SL-16 R/B               
1 22803U 93059B   25347.64968982 -.00000150  00000+0 -50368-4 0  9997
2 22803  70.9889 192.5678 0018053 334.2407  25.7816 14.17213543667342
ARIANE 40 R/B           
1 22830U 93061H   25347.66576799  .00000385  00000+0  15716-3 0  9998
2 22830  98.5076  53.1788 0010928 173.3055 186.8277 14.32802149681781
COSMOS 2278             
1 23087U 94023A   25347.45532474 -.00000151  00000+0 -54047-4 0  9995
2 23087  71.0541 355.5141 0008293 178.5861 181.5287 14.14350443632611
SL-16 R/B               
1 23088U 94023B   25347.68250923 -.00000019  00000+0  15057-4 0  9997
2 23088  71.0006 251.5060 0001423  23.3892 336.7296 14.15003079633922
SL-16 R/B               
1 23343U 94074B   25347.69984942  .00000724  00000+0  10394-3 0  9993
2 23343  97.7202  16.9662 0007600 133.1041 343.2583 14.79291004674530
SL-16 R/B               
1 23405U 94077B   25347.69766906  .00000304  00000+0  17980-3 0  9995
2 23405  70.9812 173.3983 0004681 283.3792  76.6809 14.15550425604064
ARIANE 40+ R/B          
1 23561U 95021B   25347.65151644  .00000461  00000+0  16120-3 0  9990
2 23561  98.4652  55.2294 0007450  47.5779  72.8310 14.39696367606866
SL-16 R/B               
1 23705U 95058B   25347.48839285  .00000012  00000+0  30748-4 0  9990
2 23705  71.0226   1.2326 0014982 254.5464 105.4005 14.15484128555654
SL-16 R/B               
1 24298U 96051B   25347.48012945  .00000044  00000+0  50727-4 0  9992
2 24298  70.7595 357.7168 0019415 260.4268  99.4658 14.12396896509470
ORBVIEW 2 (SEASTAR)     
1 24883U 97037A   25347.68206823  .00000468  00000+0  17917-3 0  9992
2 24883  98.8457 144.7802 0001615 338.3081  21.8035 14.35418108496130
